INTELSAT 23 (IS-23)     
1 38867U 12057A   26176.51450705 -.00000275  00000+0  00000+0 0  9999
2 38867   0.0152  11.7546 0000120 150.4114 243.6979  1.00271894 50035
FM-6                    
1 39360U 13058A   26176.50194031 -.00000006  00000+0  00000+0 0  9998
2 39360   0.0153  51.1956 0001638 129.4828 157.3597  1.00271098 46152
INTELSAT 30 (IS-30)     
1 40271U 14062A   26176.36358355 -.00000141  00000+0  00000+0 0  9992
2 40271   0.0269  55.6231 0001488 338.6495 275.0652  1.00272157  6877
DIRECTV 14              
1 40333U 14078B   26176.36271689 -.00000116  00000+0  00000+0 0  9994
2 40333   0.0098  19.2836 0000353   6.4271 279.1338  1.00272630 42125
DIRECTV 15              
1 40663U 15026A   26176.50462699 -.00000092  00000+0  00000+0 0  9996
2 40663   0.0177  60.3943 0000530 338.1020 313.9308  1.00270387 40544
SKY MEXICO-1            
1 40664U 15026B   26176.50939368  .00000000  00000+0  00000+0 0  9997
2 40664   0.0256 359.1063 0002676 115.2462 263.8772  1.00268983 40538
INTELSAT 34 (IS-34)     
1 40874U 15039A   26176.37138359 -.00000275  00000+0  00000+0 0  9995
2 40874   0.0077 354.3653 0000477  26.9885 330.3532  1.00270119 39714
INTELSAT 31 (IS-31)     
1 41581U 16035A   26176.36358355 -.00000141  00000+0  00000+0 0  9999
2 41581   0.0133 298.7394 0000685 318.5498  52.0469  1.00270776 36765
INTELSAT 36 (IS-36)     
1 41747U 16053A   26176.18209406 -.00000015  00000+0  00000+0 0  9995
2 41747   0.0128  20.9268 0002042 321.7510  64.7168  1.00272521 36034
INTELSAT 32E (IS-32E)   
1 41945U 17007B   26176.51641372  .00000000  00000+0  00000+0 0  9997
2 41945   0.0262  11.8636 0000693 345.3155  59.2005  1.00268740 34303
INTELSAT 35E (IS-35E)   
1 42818U 17041A   26176.51806039  .00000000  00000+0  00000+0 0  9998
2 42818   0.0245  11.9779 0002380  83.8780 329.8151  1.00269523 32896
INTELSAT 37E (IS-37E)   
1 42950U 17059A   26176.24627916  .00000000  00000+0  00000+0 0  9999
2 42950   0.0263  16.2605 0003094 103.0907 224.6854  1.00268809 32144
AZERSPACE 2 (IS-38)     
1 43632U 18074A   26176.17741404  .00000146  00000+0  00000+0 0  9997
2 43632   0.0035  82.5969 0001586  10.3273 289.3716  1.00272596 28528
HORIZONS-3E             
1 43633U 18074B   26175.13266341 -.00000024  00000+0  00000+0 0  9991
2 43633   0.0084 244.9552 0000546  64.2971 179.8035  1.00270268 28412
AT&T T-16               
1 44333U 19034A   26175.35600175 -.00000107  00000+0  00000+0 0  9999
2 44333   0.0237  70.4808 0000422 236.8286 352.4898  1.00269632 25703
INTELSAT 39 (IS-39)     
1 44476U 19049B   26176.53728662  .00000000  00000+0  00000+0 0  9997
2 44476   0.0262   7.3307 0000771 349.0040 172.7126  1.00270995 25211
GALAXY 30 (G-30)        
1 46114U 20056C   26175.71600622  .00000046  00000+0  00000+0 0  9992
2 46114   0.0130  51.5985 0002220  38.3382 315.6757  1.00270732 21366
GALAXY 33 (G-33)        
1 54026U 22128A   26176.49864697  .00000089  00000+0  00000+0 0  9992
2 54026   0.0160 355.3962 0002020  93.8015 230.9527  1.00271023 13827
GALAXY 34 (G-34)        
1 54027U 22128B   26175.57264679  .00000066  00000+0  00000+0 0  9990
2 54027   0.0145   9.2904 0002066  88.7541 251.8415  1.00277187 13981
GALAXY 31 (G-31)        
1 54243U 22153A   26176.12475458  .00000000  00000+0  00000+0 0  9997
2 54243   0.0172   2.5644 0001511  93.8237 100.7977  1.00272384  7219
GALAXY 32 (G-32)        
1 54244U 22153B   26175.22367264 -.00000167  00000+0  00000+0 0  9998
2 54244   0.0097   2.1596 0002133  41.7877 217.9513  1.00271380 13210
GALAXY 35 (G-35)        
1 54741U 22170A   26176.50653367 -.00000152  00000+0  00000+0 0  9997
2 54741   0.0151 313.9597 0002127 137.7435 271.1814  1.00271482 12977
GALAXY 36 (G-36)        
1 54742U 22170B   26176.50731367 -.00000175  00000+0  00000+0 0  9990
2 54742   0.0345 130.5652 0002834 317.2612 279.4552  1.00271737 12855
GALAXY 37 (G-37)        
1 57493U 23112A   26175.95392100  .00000057  00000+0  00000+0 0  9997
2 57493   0.0160  31.7708 0002245  61.6422  36.1021  1.00273244 10622
